STARLINK-5057           
1 53908U 22119Y   26075.84887758 -.00002542  00000+0 -14177-3 0  9992
2 53908  53.2163 282.1221 0000974  75.9503 284.1597 15.08817587192901
STARLINK-4796           
1 53909U 22119Z   26076.58854713 -.00003029  00000+0 -17235-3 0  9999
2 53909  53.2183 278.9197 0001272  83.8029 276.3108 15.08835595193015
STARLINK-5048           
1 53911U 22119AB  26076.58119419  .00001260  00000+0  97258-4 0  9996
2 53911  53.2163 278.8736 0001286  71.2786 288.8346 15.08833403193018
STARLINK-5059           
1 53912U 22119AC  26076.59583715  .00000958  00000+0  78309-4 0  9991
2 53912  53.2170 278.2703 0001375  88.3297 271.7853 15.08834294193024
STARLINK-5053           
1 53913U 22119AD  26076.29779826 -.00001384  00000+0 -68849-4 0  9993
2 53913  53.2171 279.9499 0001622  82.7823 277.3353 15.08838261192972
STARLINK-5040           
1 53914U 22119AE  26076.55906434 -.00001421  00000+0 -71226-4 0  9995
2 53914  53.2163 278.7443 0001343  86.7996 273.3149 15.08843028193017
STARLINK-5017           
1 53915U 22119AF  26076.66668981  .00016244  00000+0  93508-3 0  9993
2 53915  53.2171 278.3800 0001915  63.5776  98.4802 15.12584446  5806
STARLINK-5051           
1 53916U 22119AG  26075.92789299  .00001672  00000+0  12305-3 0  9993
2 53916  53.2169 261.2795 0000353  84.3369 275.7664 15.08850847193217
STARLINK-5036           
1 53917U 22119AH  26075.83779897 -.00000042  00000+0  15451-4 0  9994
2 53917  53.2174 282.0554 0001122  87.4000 272.7120 15.08839870192901
STARLINK-5012           
1 53918U 22119AJ  26075.89298424  .00000639  00000+0  58203-4 0  9996
2 53918  53.2167 281.6919 0001255  83.8832 276.2303 15.08839058192915
STARLINK-5023           
1 53919U 22119AK  26076.55170190  .00000182  00000+0  29543-4 0  9998
2 53919  53.2167 278.6969 0001269  85.1761 274.9376 15.08839959193015
STARLINK-5025           
1 53920U 22119AL  26075.90868364 -.00000372  00000+0 -53184-5 0  9997
2 53920  53.2164 281.7796 0001239  96.8779 263.2354 15.08838917192910
STARLINK-5002           
1 53922U 22119AN  26076.54065066 -.00000647  00000+0 -22562-4 0  9998
2 53922  53.2165 278.6251 0001293  87.5545 272.5595 15.08821028193019
STARLINK-5004           
1 53923U 22119AP  26076.54801841  .00000690  00000+0  61445-4 0  9997
2 53923  53.2169 278.6723 0001263  87.6242 272.4895 15.08835782193014
STARLINK-5001           
1 53924U 22119AQ  26076.55400739  .00001051  00000+0  84097-4 0  9990
2 53924  53.2162 273.7206 0001277  94.9641 265.1497 15.08834991193084
STARLINK-5011           
1 53925U 22119AR  26076.52593367 -.00004575  00000+0 -26988-3 0  9998
2 53925  53.2175 278.5408 0000443  79.4657 280.6385 15.08801273193013
