[{"OBJECT_NAME":"STARLINK-5057","OBJECT_ID":"2022-119Y","EPOCH":"2026-03-16T20:22:23.022912","MEAN_MOTION":15.08817587,"ECCENTRICITY":9.741e-5,"INCLINATION":53.2163,"RA_OF_ASC_NODE":282.1221,"ARG_OF_PERICENTER":75.9503,"MEAN_ANOMALY":284.1597,"EPHEMERIS_TYPE":0,"CLASSIFICATION_TYPE":"U","NORAD_CAT_ID":53908,"ELEMENT_SET_NO":999,"REV_AT_EPOCH":19290,"BSTAR":-0.00014177129,"MEAN_MOTION_DOT":-2.542e-5,"MEAN_MOTION_DDOT":0},{"OBJECT_NAME":"STARLINK-4796","OBJECT_ID":"2022-119Z","EPOCH":"2026-03-17T14:07:30.472032","MEAN_MOTION":15.08835595,"ECCENTRICITY":0.0001272,"INCLINATION":53.2183,"RA_OF_ASC_NODE":278.9197,"ARG_OF_PERICENTER":83.8029,"MEAN_ANOMALY":276.3108,"EPHEMERIS_TYPE":0,"CLASSIFICATION_TYPE":"U","NORAD_CAT_ID":53909,"ELEMENT_SET_NO":999,"REV_AT_EPOCH":19301,"BSTAR":-0.00017234726,"MEAN_MOTION_DOT":-3.029e-5,"MEAN_MOTION_DDOT":0},{"OBJECT_NAME":"STARLINK-5048","OBJECT_ID":"2022-119AB","EPOCH":"2026-03-17T13:56:55.178016","MEAN_MOTION":15.08833403,"ECCENTRICITY":0.00012861,"INCLINATION":53.2163,"RA_OF_ASC_NODE":278.8736,"ARG_OF_PERICENTER":71.2786,"MEAN_ANOMALY":288.8346,"EPHEMERIS_TYPE":0,"CLASSIFICATION_TYPE":"U","NORAD_CAT_ID":53911,"ELEMENT_SET_NO":999,"REV_AT_EPOCH":19301,"BSTAR":9.7258317e-5,"MEAN_MOTION_DOT":1.26e-5,"MEAN_MOTION_DDOT":0},{"OBJECT_NAME":"STARLINK-5059","OBJECT_ID":"2022-119AC","EPOCH":"2026-03-17T14:18:00.329760","MEAN_MOTION":15.08834294,"ECCENTRICITY":0.00013756,"INCLINATION":53.217,"RA_OF_ASC_NODE":278.2703,"ARG_OF_PERICENTER":88.3297,"MEAN_ANOMALY":271.7853,"EPHEMERIS_TYPE":0,"CLASSIFICATION_TYPE":"U","NORAD_CAT_ID":53912,"ELEMENT_SET_NO":999,"REV_AT_EPOCH":19302,"BSTAR":7.8308784e-5,"MEAN_MOTION_DOT":9.58e-6,"MEAN_MOTION_DDOT":0},{"OBJECT_NAME":"STARLINK-5053","OBJECT_ID":"2022-119AD","EPOCH":"2026-03-17T07:08:49.769664","MEAN_MOTION":15.08838261,"ECCENTRICITY":0.00016224,"INCLINATION":53.2171,"RA_OF_ASC_NODE":279.9499,"ARG_OF_PERICENTER":82.7823,"MEAN_ANOMALY":277.3353,"EPHEMERIS_TYPE":0,"CLASSIFICATION_TYPE":"U","NORAD_CAT_ID":53913,"ELEMENT_SET_NO":999,"REV_AT_EPOCH":19297,"BSTAR":-6.8848857e-5,"MEAN_MOTION_DOT":-1.384e-5,"MEAN_MOTION_DDOT":0},{"OBJECT_NAME":"STARLINK-5040","OBJECT_ID":"2022-119AE","EPOCH":"2026-03-17T13:25:03.158976","MEAN_MOTION":15.08843028,"ECCENTRICITY":0.00013431,"INCLINATION":53.2163,"RA_OF_ASC_NODE":278.7443,"ARG_OF_PERICENTER":86.7996,"MEAN_ANOMALY":273.3149,"EPHEMERIS_TYPE":0,"CLASSIFICATION_TYPE":"U","NORAD_CAT_ID":53914,"ELEMENT_SET_NO":999,"REV_AT_EPOCH":19301,"BSTAR":-7.1226349e-5,"MEAN_MOTION_DOT":-1.421e-5,"MEAN_MOTION_DDOT":0},{"OBJECT_NAME":"STARLINK-5017","OBJECT_ID":"2022-119AF","EPOCH":"2026-03-17T16:00:01.999584","MEAN_MOTION":15.12584446,"ECCENTRICITY":0.00019157,"INCLINATION":53.2171,"RA_OF_ASC_NODE":278.38,"ARG_OF_PERICENTER":63.5776,"MEAN_ANOMALY":98.4802,"EPHEMERIS_TYPE":0,"CLASSIFICATION_TYPE":"U","NORAD_CAT_ID":53915,"ELEMENT_SET_NO":999,"REV_AT_EPOCH":580,"BSTAR":0.00093508466,"MEAN_MOTION_DOT":0.00016244,"MEAN_MOTION_DDOT":0},{"OBJECT_NAME":"STARLINK-5051","OBJECT_ID":"2022-119AG","EPOCH":"2026-03-16T22:16:09.954336","MEAN_MOTION":15.08850847,"ECCENTRICITY":3.533e-5,"INCLINATION":53.2169,"RA_OF_ASC_NODE":261.2795,"ARG_OF_PERICENTER":84.3369,"MEAN_ANOMALY":275.7664,"EPHEMERIS_TYPE":0,"CLASSIFICATION_TYPE":"U","NORAD_CAT_ID":53916,"ELEMENT_SET_NO":999,"REV_AT_EPOCH":19321,"BSTAR":0.00012304763,"MEAN_MOTION_DOT":1.672e-5,"MEAN_MOTION_DDOT":0},{"OBJECT_NAME":"STARLINK-5036","OBJECT_ID":"2022-119AH","EPOCH":"2026-03-16T20:06:25.831008","MEAN_MOTION":15.0883987,"ECCENTRICITY":0.00011227,"INCLINATION":53.2174,"RA_OF_ASC_NODE":282.0554,"ARG_OF_PERICENTER":87.4,"MEAN_ANOMALY":272.712,"EPHEMERIS_TYPE":0,"CLASSIFICATION_TYPE":"U","NORAD_CAT_ID":53917,"ELEMENT_SET_NO":999,"REV_AT_EPOCH":19290,"BSTAR":1.5451468e-5,"MEAN_MOTION_DOT":-4.2e-7,"MEAN_MOTION_DDOT":0},{"OBJECT_NAME":"STARLINK-5012","OBJECT_ID":"2022-119AJ","EPOCH":"2026-03-16T21:25:53.838336","MEAN_MOTION":15.08839058,"ECCENTRICITY":0.00012552,"INCLINATION":53.2167,"RA_OF_ASC_NODE":281.6919,"ARG_OF_PERICENTER":83.8832,"MEAN_ANOMALY":276.2303,"EPHEMERIS_TYPE":0,"CLASSIFICATION_TYPE":"U","NORAD_CAT_ID":53918,"ELEMENT_SET_NO":999,"REV_AT_EPOCH":19291,"BSTAR":5.8202633e-5,"MEAN_MOTION_DOT":6.39e-6,"MEAN_MOTION_DDOT":0},{"OBJECT_NAME":"STARLINK-5023","OBJECT_ID":"2022-119AK","EPOCH":"2026-03-17T13:14:27.044160","MEAN_MOTION":15.08839959,"ECCENTRICITY":0.00012693,"INCLINATION":53.2167,"RA_OF_ASC_NODE":278.6969,"ARG_OF_PERICENTER":85.1761,"MEAN_ANOMALY":274.9376,"EPHEMERIS_TYPE":0,"CLASSIFICATION_TYPE":"U","NORAD_CAT_ID":53919,"ELEMENT_SET_NO":999,"REV_AT_EPOCH":19301,"BSTAR":2.9542922e-5,"MEAN_MOTION_DOT":1.82e-6,"MEAN_MOTION_DDOT":0},{"OBJECT_NAME":"STARLINK-5025","OBJECT_ID":"2022-119AL","EPOCH":"2026-03-16T21:48:30.266496","MEAN_MOTION":15.08838917,"ECCENTRICITY":0.0001239,"INCLINATION":53.2164,"RA_OF_ASC_NODE":281.7796,"ARG_OF_PERICENTER":96.8779,"MEAN_ANOMALY":263.2354,"EPHEMERIS_TYPE":0,"CLASSIFICATION_TYPE":"U","NORAD_CAT_ID":53920,"ELEMENT_SET_NO":999,"REV_AT_EPOCH":19291,"BSTAR":-5.318405e-6,"MEAN_MOTION_DOT":-3.72e-6,"MEAN_MOTION_DDOT":0},{"OBJECT_NAME":"STARLINK-5002","OBJECT_ID":"2022-119AN","EPOCH":"2026-03-17T12:58:32.217024","MEAN_MOTION":15.08821028,"ECCENTRICITY":0.00012938,"INCLINATION":53.2165,"RA_OF_ASC_NODE":278.6251,"ARG_OF_PERICENTER":87.5545,"MEAN_ANOMALY":272.5595,"EPHEMERIS_TYPE":0,"CLASSIFICATION_TYPE":"U","NORAD_CAT_ID":53922,"ELEMENT_SET_NO":999,"REV_AT_EPOCH":19301,"BSTAR":-2.2562119e-5,"MEAN_MOTION_DOT":-6.47e-6,"MEAN_MOTION_DDOT":0},{"OBJECT_NAME":"STARLINK-5004","OBJECT_ID":"2022-119AP","EPOCH":"2026-03-17T13:09:08.790624","MEAN_MOTION":15.08835782,"ECCENTRICITY":0.00012632,"INCLINATION":53.2169,"RA_OF_ASC_NODE":278.6723,"ARG_OF_PERICENTER":87.6242,"MEAN_ANOMALY":272.4895,"EPHEMERIS_TYPE":0,"CLASSIFICATION_TYPE":"U","NORAD_CAT_ID":53923,"ELEMENT_SET_NO":999,"REV_AT_EPOCH":19301,"BSTAR":6.1445426e-5,"MEAN_MOTION_DOT":6.9e-6,"MEAN_MOTION_DDOT":0},{"OBJECT_NAME":"STARLINK-5001","OBJECT_ID":"2022-119AQ","EPOCH":"2026-03-17T13:17:46.238496","MEAN_MOTION":15.08834991,"ECCENTRICITY":0.00012772,"INCLINATION":53.2162,"RA_OF_ASC_NODE":273.7206,"ARG_OF_PERICENTER":94.9641,"MEAN_ANOMALY":265.1497,"EPHEMERIS_TYPE":0,"CLASSIFICATION_TYPE":"U","NORAD_CAT_ID":53924,"ELEMENT_SET_NO":999,"REV_AT_EPOCH":19308,"BSTAR":8.4097433e-5,"MEAN_MOTION_DOT":1.051e-5,"MEAN_MOTION_DDOT":0},{"OBJECT_NAME":"STARLINK-5011","OBJECT_ID":"2022-119AR","EPOCH":"2026-03-17T12:37:20.669088","MEAN_MOTION":15.08801273,"ECCENTRICITY":4.43e-5,"INCLINATION":53.2175,"RA_OF_ASC_NODE":278.5408,"ARG_OF_PERICENTER":79.4657,"MEAN_ANOMALY":280.6385,"EPHEMERIS_TYPE":0,"CLASSIFICATION_TYPE":"U","NORAD_CAT_ID":53925,"ELEMENT_SET_NO":999,"REV_AT_EPOCH":19301,"BSTAR":-0.0002698826,"MEAN_MOTION_DOT":-4.575e-5,"MEAN_MOTION_DDOT":0}]
